ONEWEB-0300             
1 49089U 21075Q   25027.19412371 -.00000299  00000+0 -86636-3 0  9992
2 49089  87.8847  91.4063 0001533 108.4381 251.6914 13.12442255168837
ONEWEB-0301             
1 49090U 21075R   25027.78780598  .00000256  00000+0  67545-3 0  9997
2 49090  87.8846  91.2930 0001609 108.3705 251.7599 13.12441910169267
ONEWEB-0302             
1 49091U 21075S   25027.24118958  .00000498  00000+0  13479-2 0  9998
2 49091  87.8847  91.4022 0002276  98.0060 262.1326 13.12443860168183
ONEWEB-0304             
1 49092U 21075T   25027.28157982  .00000099  00000+0  22127-3 0  9991
2 49092  87.9083 106.6619 0001882  97.7431 262.3914 13.17648996166958
ONEWEB-0305             
1 49093U 21075U   25027.27483079  .00000085  00000+0  18635-3 0  9994
2 49093  87.9080 106.6444 0001781  87.7851 272.3484 13.17648863166984
ONEWEB-0308             
1 49094U 21075V   25027.23468395  .00000548  00000+0  14884-2 0  9990
2 49094  87.8848  91.4001 0001797 103.4666 256.6663 13.12443857168193
ONEWEB-0309             
1 49095U 21075W   25027.20227147  .00000072  00000+0  15216-3 0  9999
2 49095  87.9084 106.6705 0002361 103.3261 256.8134 13.17649828166942
ONEWEB-0310             
1 49096U 21075X   25027.24927792  .00000379  00000+0  10168-2 0  9997
2 49096  87.8856  91.4258 0001995 101.6121 258.5231 13.12442846168823
